{
  "type": "FeatureCollection",
  "features": [
    {
      "type": "Feature",
      "properties": {
        "norad_id": 35835,
        "name": "COSMOS 2251 DEB",
        "group": "cosmos-2251-debris",
        "lat": -66.29541367984973,
        "lon": -125.433433515738,
        "alt_km": 1093.2624337706266,
        "timestamp": "2025-12-08T17:43:05.334706+00:00",
        "meta_object_name": "COSMOS 2251 DEB",
        "meta_object_id": "1993-036ATH",
        "meta_epoch": "2025-12-08T02:26:31.163712",
        "meta_mean_motion": 13.82845446,
        "meta_eccentricity": 0.0289856,
        "meta_inclination": 74.0637,
        "meta_ra_of_asc_node": 276.2339,
        "meta_arg_of_pericenter": 58.9026,
        "meta_mean_anomaly": 304.0195,
        "meta_ephemeris_type": 0,
        "meta_classification_type": "U",
        "meta_norad_cat_id": 35835,
        "meta_element_set_no": 999,
        "meta_rev_at_epoch": 61635,
        "meta_bstar": 0.0020246404,
        "meta_mean_motion_dot": 3.026e-05,
        "meta_mean_motion_ddot": 0,
        "tle_line1": "1 35835U 93036ATH 25342.10174958  .00003026  00000+0  20246-2 0  9992",
        "tle_line2": "2 35835  74.0637 276.2339 0289856  58.9026 304.0195 13.82845446616351"
      },
      "geometry": {
        "type": "Point",
        "coordinates": [
          -125.433433515738,
          -66.29541367984973
        ]
      }
    },
    {
      "type": "Feature",
      "properties": {
        "norad_id": 35836,
        "name": "COSMOS 2251 DEB",
        "group": "cosmos-2251-debris",
        "lat": -36.682893963667716,
        "lon": 168.39018898295157,
        "alt_km": 661.9669401905958,
        "timestamp": "2025-12-08T17:43:05.334716+00:00",
        "meta_object_name": "COSMOS 2251 DEB",
        "meta_object_id": "1993-036ATJ",
        "meta_epoch": "2025-12-08T06:27:56.390688",
        "meta_mean_motion": 14.70815934,
        "meta_eccentricity": 0.00246415,
        "meta_inclination": 74.0313,
        "meta_ra_of_asc_node": 181.6162,
        "meta_arg_of_pericenter": 240.7516,
        "meta_mean_anomaly": 119.1191,
        "meta_ephemeris_type": 0,
        "meta_classification_type": "U",
        "meta_norad_cat_id": 35836,
        "meta_element_set_no": 999,
        "meta_rev_at_epoch": 63454,
        "meta_bstar": 0.0020209158,
        "meta_mean_motion_dot": 0.00012396,
        "meta_mean_motion_ddot": 0,
        "tle_line1": "1 35836U 93036ATJ 25342.26940267  .00012396  00000+0  20209-2 0  9993",
        "tle_line2": "2 35836  74.0313 181.6162 0024641 240.7516 119.1191 14.70815934634549"
      },
      "geometry": {
        "type": "Point",
        "coordinates": [
          168.39018898295157,
          -36.682893963667716
        ]
      }
    },
    {
      "type": "Feature",
      "properties": {
        "norad_id": 35837,
        "name": "COSMOS 2251 DEB",
        "group": "cosmos-2251-debris",
        "lat": -10.051976816418037,
        "lon": -148.68641181272,
        "alt_km": 1281.9793867895833,
        "timestamp": "2025-12-08T17:43:05.334727+00:00",
        "meta_object_name": "COSMOS 2251 DEB",
        "meta_object_id": "1993-036ATK",
        "meta_epoch": "2025-12-07T22:31:32.970720",
        "meta_mean_motion": 13.63422075,
        "meta_eccentricity": 0.04220262,
        "meta_inclination": 73.7211,
        "meta_ra_of_asc_node": 215.6126,
        "meta_arg_of_pericenter": 137.1578,
        "meta_mean_anomaly": 251.5958,
        "meta_ephemeris_type": 0,
        "meta_classification_type": "U",
        "meta_norad_cat_id": 35837,
        "meta_element_set_no": 999,
        "meta_rev_at_epoch": 57911,
        "meta_bstar": 0.0024112323,
        "meta_mean_motion_dot": 3.456e-05,
        "meta_mean_motion_ddot": 0,
        "tle_line1": "1 35837U 93036ATK 25341.93857605  .00003456  00000+0  24112-2 0  9994",
        "tle_line2": "2 35837  73.7211 215.6126 0422026 137.1578 251.5958 13.63422075579111"
      },
      "geometry": {
        "type": "Point",
        "coordinates": [
          -148.68641181272,
          -10.051976816418037
        ]
      }
    },
    {
      "type": "Feature",
      "properties": {
        "norad_id": 35839,
        "name": "COSMOS 2251 DEB",
        "group": "cosmos-2251-debris",
        "lat": -17.288676277509513,
        "lon": 157.26280702861118,
        "alt_km": 425.80561366892834,
        "timestamp": "2025-12-08T17:43:05.334738+00:00",
        "meta_object_name": "COSMOS 2251 DEB",
        "meta_object_id": "1993-036ATM",
        "meta_epoch": "2025-12-07T09:51:22.453920",
        "meta_mean_motion": 15.48129363,
        "meta_eccentricity": 0.00022318,
        "meta_inclination": 74.2099,
        "meta_ra_of_asc_node": 335.0837,
        "meta_arg_of_pericenter": 8.4811,
        "meta_mean_anomaly": 351.644,
        "meta_ephemeris_type": 0,
        "meta_classification_type": "U",
        "meta_norad_cat_id": 35839,
        "meta_element_set_no": 999,
        "meta_rev_at_epoch": 88485,
        "meta_bstar": 0.0063230945,
        "meta_mean_motion_dot": 0.0034734,
        "meta_mean_motion_ddot": 0,
        "tle_line1": "1 35839U 93036ATM 25341.41067655  .00347340  00000+0  63231-2 0  9995",
        "tle_line2": "2 35839  74.2099 335.0837 0002231   8.4811 351.6440 15.48129363884858"
      },
      "geometry": {
        "type": "Point",
        "coordinates": [
          157.26280702861118,
          -17.288676277509513
        ]
      }
    },
    {
      "type": "Feature",
      "properties": {
        "norad_id": 35840,
        "name": "COSMOS 2251 DEB",
        "group": "cosmos-2251-debris",
        "lat": 12.094280864660686,
        "lon": -17.945764225408354,
        "alt_km": 777.6990599640949,
        "timestamp": "2025-12-08T17:43:05.334748+00:00",
        "meta_object_name": "COSMOS 2251 DEB",
        "meta_object_id": "1993-036ATN",
        "meta_epoch": "2025-12-07T19:14:43.874880",
        "meta_mean_motion": 14.37753479,
        "meta_eccentricity": 0.01162734,
        "meta_inclination": 73.9301,
        "meta_ra_of_asc_node": 167.3302,
        "meta_arg_of_pericenter": 71.0213,
        "meta_mean_anomaly": 290.3497,
        "meta_ephemeris_type": 0,
        "meta_classification_type": "U",
        "meta_norad_cat_id": 35840,
        "meta_element_set_no": 999,
        "meta_rev_at_epoch": 85220,
        "meta_bstar": 0.0026020833,
        "meta_mean_motion_dot": 8.452e-05,
        "meta_mean_motion_ddot": 0,
        "tle_line1": "1 35840U 93036ATN 25341.80189670  .00008452  00000+0  26021-2 0  9996",
        "tle_line2": "2 35840  73.9301 167.3302 0116273  71.0213 290.3497 14.37753479852202"
      },
      "geometry": {
        "type": "Point",
        "coordinates": [
          -17.945764225408354,
          12.094280864660686
        ]
      }
    },
    {
      "type": "Feature",
      "properties": {
        "norad_id": 35883,
        "name": "COSMOS 2251 DEB",
        "group": "cosmos-2251-debris",
        "lat": -17.009682662088828,
        "lon": 72.52681000065614,
        "alt_km": 769.9050275299624,
        "timestamp": "2025-12-08T17:43:05.334758+00:00",
        "meta_object_name": "COSMOS 2251 DEB",
        "meta_object_id": "1993-036ATW",
        "meta_epoch": "2025-12-08T00:24:37.194624",
        "meta_mean_motion": 14.50584446,
        "meta_eccentricity": 0.00839358,
        "meta_inclination": 74.0249,
        "meta_ra_of_asc_node": 78.9103,
        "meta_arg_of_pericenter": 209.3068,
        "meta_mean_anomaly": 327.9656,
        "meta_ephemeris_type": 0,
        "meta_classification_type": "U",
        "meta_norad_cat_id": 35883,
        "meta_element_set_no": 999,
        "meta_rev_at_epoch": 62317,
        "meta_bstar": 0.00055538477,
        "meta_mean_motion_dot": 2.249e-05,
        "meta_mean_motion_ddot": 0,
        "tle_line1": "1 35883U 93036ATW 25342.01709716  .00002249  00000+0  55538-3 0  9990",
        "tle_line2": "2 35883  74.0249  78.9103 0083935 209.3068 327.9656 14.50584446623177"
      },
      "geometry": {
        "type": "Point",
        "coordinates": [
          72.52681000065614,
          -17.009682662088828
        ]
      }
    },
    {
      "type": "Feature",
      "properties": {
        "norad_id": 35884,
        "name": "COSMOS 2251 DEB",
        "group": "cosmos-2251-debris",
        "lat": 56.654783068130605,
        "lon": 9.123922886376251,
        "alt_km": 774.2652072882483,
        "timestamp": "2025-12-08T17:43:05.334769+00:00",
        "meta_object_name": "COSMOS 2251 DEB",
        "meta_object_id": "1993-036ATX",
        "meta_epoch": "2025-12-06T18:16:42.391200",
        "meta_mean_motion": 14.25605565,
        "meta_eccentricity": 0.01089766,
        "meta_inclination": 73.9907,
        "meta_ra_of_asc_node": 346.8314,
        "meta_arg_of_pericenter": 135.364,
        "meta_mean_anomaly": 225.6347,
        "meta_ephemeris_type": 0,
        "meta_classification_type": "U",
        "meta_norad_cat_id": 35884,
        "meta_element_set_no": 999,
        "meta_rev_at_epoch": 22272,
        "meta_bstar": 0.0019229553,
        "meta_mean_motion_dot": 4.824e-05,
        "meta_mean_motion_ddot": 0,
        "tle_line1": "1 35884U 93036ATX 25340.76160175  .00004824  00000+0  19230-2 0  9990",
        "tle_line2": "2 35884  73.9907 346.8314 0108976 135.3640 225.6347 14.25605565222720"
      },
      "geometry": {
        "type": "Point",
        "coordinates": [
          9.123922886376251,
          56.654783068130605
        ]
      }
    }
  ]
}